C/2013 F3 (McNaught),e,85.5993,265.9991,18.8063,661.5730,0.0000579,0.99658939,0.0000,05/25.6223/2013,2000,g 12.0,4.0
# From MPC 91612
P/2013 G1 (Kowalski),e,5.4735,221.4404,51.2441,6.881463,0.0545988,0.51360333,107.1857,04/29.0/2019,2000,g 11.0,4.0
# From MPC 84933
C/2013 G2 (McNaught),e,95.8989,273.8988,293.8862,13147,0.0000007,0.99983578,0.0000,12/04.7499/2012,2000,g 11.5,4.0
# From MPC102950
C/2013 G3 (PANSTARRS),h,11/16.3736/2014,64.6527,208.1058,76.5600,1.002565,3.851895,2000,9.0,4.0
# From MPC 84025
P/2013 G4 (PANSTARRS),e,5.9169,339.6814,214.7263,4.437644,0.1054327,0.41023394,239.0685,04/29.0/2019,2000,g 15.0,4.0
# From MPC 84318
C/2013 G5 (Catalina),e,40.7550,144.0049,165.7020,6635,0.0000018,0.99986127,0.0000,09/02.3794/2013,2000,g 14.0,4.0
# From MPC 87478
C/2013 G6 (Lemmon),e,124.1246,44.5499,215.8144,425.3728,0.0001123,0.99517303,0.0000,07/26.4566/2013,2000,g 13.5,4.0
# From MPC 95209
C/2013 G7 (McNaught),e,105.1060,48.3620,218.4430,4343,0.0000034,0.99892078,0.0000,03/20.4406/2014,2000,g  7.5,4.0
# From MPC 95209
C/2013 G8 (PANSTARRS),e,27.6480,240.9759,80.0857,2958,0.0000061,0.99826543,0.0000,11/15.5791/2013,2000,g  8.5,4.0
# From MPC 10027
C/2013 G9 (Tenagra),h,01/16.6822/2015,146.2486,35.7591,205.2203,1.001469,5.346802,2000,7.0,4.0
# From MPC 84933
C/2013 H1 (La Sagra),e,27.0692,84.7993,136.9132,206.5019,0.0003321,0.98712647,0.0000,05/20.0477/2013,2000,g 13.0,4.0
# From MPC 94670
C/2013 H2 (Boattini),h,01/25.2842/2014,128.3975,262.6733,36.1477,1.000011,7.514682,2000,6.5,4.0
# From MPC 91613
P/2013 J2 (McNaught),e,15.5310,289.4203,37.7159,6.225455,0.0634523,0.65668940,131.5899,04/29.0/2019,2000,g 13.0,4.0
# From MPC 87916
C/2013 J3 (McNaught),e,118.2152,200.8004,321.1660,1124,0.0000262,0.99643286,0.0000,02/21.4684/2013,2000,g 10.0,4.0
# From MPC 87066
P/2013 J4 (PANSTARRS),e,5.0352,84.0011,118.7706,2.475100,0.2531133,0.23099371,359.9443,11/04.0/2013,2000,g 14.0,4.0
# From MPC 84319
C/2013 J5 (Boattini),e,136.0357,256.6808,19.2800,1746,0.0000135,0.99717875,0.0000,11/29.3671/2012,2000,g 10.0,4.0
# From MPC 84627
C/2013 J6 (Catalina),e,84.9913,68.2856,125.7802,59.70664,0.0021363,0.95931734,4.7258,04/29.0/2019,2000,g 14.5,4.0
# From MPC 84319
C/2013 K1 (Christensen),e,42.5360,125.6776,171.3580,77.11489,0.0014554,0.98780191,0.0000,05/31.3818/2013,2000,g 18.0,4.0
# From MPC 87916
C/2013 L2 (Catalina),e,106.8195,285.7191,1.8700,4338,0.0000034,0.99887536,0.0000,05/09.2758/2012,2000,g  8.0,4.0
# From MPC 86229
P/2013 N3 (PANSTARRS),e,2.1715,17.5740,323.7831,7.392440,0.0490368,0.59217246,93.2558,04/29.0/2019,2000,g 13.0,4.0
# From MPC 88328
C/2013 N4 (Borisov),e,36.9909,322.7926,142.2580,47.26605,0.0030331,0.97419599,0.0000,08/19.0798/2013,2000,g 12.0,4.0
# From MPC 85834
P/2013 N5 (PANSTARRS),e,23.3739,187.1959,176.8874,6.803518,0.0555397,0.73081285,118.2562,04/29.0/2019,2000,g 17.0,4.0
# From MPC 87479
P/2013 O2 (PANSTARRS),e,13.3196,207.3816,213.6712,3.800773,0.1330137,0.44578744,259.6349,04/29.0/2019,2000,g 14.0,4.0
# From MPC 90767
C/2013 O3 (McNaught),e,102.8400,276.6039,337.9629,675.5631,0.0000561,0.99528087,0.0000,09/08.7699/2013,2000,g 11.5,4.0
# From MPC 85834
P/2013 P1 (PANSTARRS),e,18.7108,160.6999,137.9404,8.561143,0.0393465,0.60600906,88.5693,04/29.0/2019,2000,g 12.0,4.0
# From MPC 93584
C/2013 P2 (PANSTARRS),e,125.6677,2.1327,105.0959,761.8733,0.0000469,0.99626459,0.0000,02/15.1957/2014,2000,g 11.5,4.0
# From MPC111767
C/2013 P3 (Palomar),e,93.8901,177.2334,177.0066,23326,0.0000003,0.99962965,0.0000,11/20.5610/2014,2000,g  5.5,4.0
# From MPC 96865
C/2013 P4 (PANSTARRS),e,4.2721,256.5945,113.2687,14.66750,0.0175457,0.59410346,30.2384,04/29.0/2019,2000,g  7.5,4.0
# From MPC 88696
C/2013 PE67 (Catalina-Spacewatch),e,116.8087,325.9996,59.9883,51.94941,0.0026323,0.96385729,5.1856,04/29.0/2019,2000,g 14.0,4.0
# From MPC102950
C/2013 R1 (Lovejoy),e,63.8542,70.5756,67.3101,462.8789,0.0000990,0.99823349,0.0000,12/20.9792/2013,2000,g  7.0,4.0
# From MPC 94671
P/2013 R3 (Catalina-PANSTARRS),e,0.8653,342.0200,11.1170,3.033447,0.1865518,0.27467376,26.7775,04/29.0/2019,2000,g 14.0,4.0
# From unp
P/2013 R3-A (Catalina-PANSTARRS),e,0.8646,341.9868,11.1560,3.033307,0.1865647,0.27464312,26.8022,04/29.0/2019,2000,g  9.0,4.0
# From MPEC 2015-M77
P/2013 R3-B (Catalina-PANSTARRS),e,0.8659,342.0427,11.0909,3.033523,0.1865448,0.27468885,26.7643,04/29.0/2019,2000,g  9.0,4.0
# From MPC 86230
C/2013 S1 (Catalina),e,83.9664,221.5767,165.8286,1714,0.0000139,0.99836066,0.0000,08/02.3015/2013,2000,g 13.0,4.0
# From MPC 85835
P/2013 T1 (PANSTARRS),e,24.2380,10.1180,346.0584,5.865474,0.0693824,0.62252564,145.6572,04/29.0/2019,2000,g 16.5,4.0
# From MPC 86643
P/2013 T2 (Schwartz),e,9.4559,0.8466,345.4032,3.490169,0.1511592,0.50135044,327.4299,04/29.0/2019,2000,g 16.0,4.0
# From MPC104789
C/2013 TW5 (Spacewatch),e,31.4026,319.7251,190.4985,265.5850,0.0002277,0.97800220,0.0000,08/16.5782/2014,2000,g  7.5,4.0
# From MPC 88696
P/2013 TL117 (Lemmon),e,9.3642,3.3173,112.2574,3.608029,0.1438133,0.68897453,272.9469,04/29.0/2019,2000,g 17.5,4.0
# From MPC 86643
C/2013 U1 (Catalina),e,23.9445,211.2143,142.9928,11.86377,0.0241196,0.79706781,47.9243,04/29.0/2019,2000,g 13.5,4.0
# From MPC104790
C/2013 U2 (Holvorcem),e,43.2407,6.8930,107.9184,500.8733,0.0000879,0.98972659,0.0000,10/26.0669/2014,2000,g  7.5,4.0
# From MPC102951
C/2013 UQ4 (Catalina),e,145.1413,317.8192,23.6786,58.07101,0.0022272,0.98115320,0.0000,07/03.9373/2014,2000,g 13.5,4.0
# From MPC110080
C/2013 US10 (Catalina),h,11/16.0481/2015,148.8377,186.2529,340.5158,1.000553,0.824462,2000,4.4,4.0
# From MPC102951
C/2013 V1 (Boattini),h,04/19.2787/2014,64.9930,72.8158,48.1698,1.001182,1.670767,2000,10.5,4.0
# From MPC 10027
C/2013 V2 (Borisov),h,10/12.2226/2014,37.8353,48.3992,94.5141,1.001077,3.515895,2000,7.0,4.0
# From MPC 88329
C/2013 V3 (Nevski),e,32.0962,101.0104,339.5239,12.59037,0.0220621,0.88953421,44.3479,04/29.0/2019,2000,g 14.0,4.0
# From MPC111767
C/2013 V4 (Catalina),e,67.8606,55.6354,40.3960,10650,0.0000009,0.99951315,0.0000,10/06.4566/2015,2000,g  6.0,4.0
# From MPC102951
C/2013 V5 (Oukaimeden),e,154.8875,278.7625,314.8005,321.1989,0.0001712,0.99803285,0.0000,09/26.4671/2014,2000,g  9.0,4.0
# From MPC 91613
P/2013 W1 (PANSTARRS),e,4.6956,117.8515,1.3285,3.489079,0.1512300,0.59273812,284.3279,04/29.0/2019,2000,g 17.5,4.0
# From MPC109141
C/2013 W2 (PANSTARRS),e,4.8461,178.3525,304.2095,9.666952,0.0327921,0.54604400,53.0443,04/29.0/2019,2000,g 13.5,2.0
# From MPC111767
C/2013 X1 (PANSTARRS),h,04/19.9754/2016,163.1819,131.6290,165.1153,1.000336,1.316669,2000,10.5,2.0
# From MPC 90768
C/2013 Y2 (PANSTARRS),e,29.3948,243.2984,309.1358,239.9485,0.0002652,0.99195347,0.0000,06/12.9849/2014,2000,g 12.0,4.0
# From MPC101095
P/2013 YG46 (Spacewatch),e,7.8580,48.9028,242.4115,3.276920,0.1661519,0.45472037,136.1062,04/29.0/2019,2000,g 10.0,4.0
# From MPC 89728
P/2014 A2 (Hill),e,24.5516,106.6266,356.3486,5.923940,0.0683578,0.64683316,137.6462,04/29.0/2019,2000,g 15.0,4.0
# From MPC 92981
P/2014 A3 (PANSTARRS),e,13.6922,230.4364,212.0958,4.645807,0.0984266,0.24331880,217.1573,04/29.0/2019,2000,g 12.0,4.0
# From MPC108592
C/2014 A4 (SONEAR),e,121.3690,29.7164,356.6408,5453,0.0000024,0.99923440,0.0000,09/04.7750/2015,2000,g  6.0,4.0
# From MPC 93585
C/2014 A5 (PANSTARRS),e,31.9692,310.0763,182.3863,84.14340,0.0012770,0.94288491,2.2014,04/29.0/2019,2000,g 10.0,4.0
# From MPC 96865
C/2014 AA52 (Catalina),h,02/27.4052/2015,105.1478,330.3876,292.1482,1.000201,1.999024,2000,10.0,4.0
# From MPC111767
C/2014 B1 (Schwartz),h,09/10.8947/2017,28.3883,161.3962,345.8673,1.001422,9.557017,2000,4.0,4.0
# From MPC102095
P/2014 C1 (TOTAS),e,2.6808,167.8488,24.1487,3.043000,0.1856741,0.44643631,2.9193,04/29.0/2019,2000,g 15.5,4.0
# From MPC 88697
C/2014 C2 (STEREO),e,135.7262,283.5586,56.2423,719.2945,0.0000511,0.99928514,0.0000,02/18.7490/2014,2000,g 18.0,4.0
# From MPC 90272
C/2014 C3 (NEOWISE),e,151.7756,204.5604,346.1485,109.6913,0.0008579,0.98294827,0.0000,01/16.8241/2014,2000,g 14.0,4.0
# From MPC 91614
P/2014 E1 (Larson),e,15.9797,39.0563,185.9594,3.713482,0.1377311,0.42380270,248.0370,04/29.0/2019,2000,g 14.0,4.0
# From MPC102951
C/2014 E2 (Jacques),e,156.3012,56.6362,344.1249,570.4514,0.0000723,0.99884405,0.0000,07/01.7099/2014,2000,g  7.1,4.4
# From MPC 90769
C/2014 F1 (Hill),e,108.2689,239.8328,8.4039,3689,0.0000044,0.99904848,0.0000,10/04.9757/2013,2000,g 10.5,4.0
# From MPC 97495
C/2014 F2 (Tenagra),e,119.1116,267.4486,86.1584,151.7469,0.0005273,0.97155212,0.0000,01/03.5588/2015,2000,g  9.5,4.0
# From MPC 94280
C/2014 F3 (Sheppard-Trujillo),e,6.4902,327.3064,1.3352,16.32452,0.0149432,0.64966756,349.0402,04/29.0/2019,2000,g  6.0,4.0
# From MPC 90272
C/2014 G1 (PANSTARRS),e,165.6503,337.9531,77.2405,586.1738,0.0000694,0.99063418,0.0000,11/05.1881/2013,2000,g  9.0,4.0
# From MPC101095
C/2014 G3 (PANSTARRS),e,156.0798,4.7475,148.1765,53.79919,0.0024977,0.91247761,3.8616,04/29.0/2019,2000,g  9.0,4.0
# From MPC 88697
C/2014 H1 (Christensen),e,99.9164,34.6981,169.3870,141.8263,0.0005835,0.98483709,0.0000,04/15.2210/2014,2000,g 14.5,4.0
# From MPC105541
C/2014 HU195 (Valdes-TOTAS),e,5.8178,115.7525,145.2796,22.08266,0.0094979,0.76777646,13.6799,04/29.0/2019,2000,g 10.5,4.0
# From MPC109588
C/2014 J1 (Catalina),e,159.7032,41.9707,195.5447,8.755856,0.0380414,0.80450520,67.4570,04/29.0/2019,2000,g 17.0,4.0
# From MPC 93585
P/2014 L2 (NEOWISE),e,5.1910,149.3664,182.6201,6.305077,0.0622542,0.64730559,108.8003,04/29.0/2019,2000,g 12.0,4.0
# From MPC 90769
P/2014 L3 (Hill),e,6.2747,115.4827,178.5715,8.159232,0.0422893,0.77383155,74.5919,04/29.0/2019,2000,g 16.0,4.0
# From MPC 95731
C/2014 L5 (Lemmon),e,122.8180,35.7142,45.5118,6359,0.0000019,0.99902473,0.0000,11/23.7822/2014,2000,g  8.0,4.0
# From MPC103844
C/2014 M1 (PANSTARRS),e,160.2162,234.7556,337.0435,4616,0.0000031,0.99878847,0.0000,08/27.0590/2015,2000,g  9.0,4.0
# From MPC109141
C/2014 M2 (Christensen),e,32.4047,245.2585,40.8180,2096,0.0000103,0.99670161,0.0000,07/19.6021/2014,2000,g  6.0,4.0
# From MPC 90769
